{
    "links": {
        "self": "http://www.neowsapp.com/rest/v1/neo/3767161?api_key=iIulBulltgU6a56xZRHN4H3l9WmuAYTsLGpBGhQ2"
    },
    "id": "3767161",
    "neo_reference_id": "3767161",
    "name": "(2017 BM30)",
    "designation": "2017 BM30",
    "nasa_jpl_url": "http://ssd.jpl.nasa.gov/sbdb.cgi?sstr=3767161",
    "absolute_magnitude_h": 26.5,
    "estimated_diameter": {
        "kilometers": {
            "estimated_diameter_min": 0.0133215567,
            "estimated_diameter_max": 0.0297879063
        },
        "meters": {
            "estimated_diameter_min": 13.3215566698,
            "estimated_diameter_max": 29.7879062798
        },
        "miles": {
            "estimated_diameter_min": 0.008277629,
            "estimated_diameter_max": 0.0185093411
        },
        "feet": {
            "estimated_diameter_min": 43.7058959846,
            "estimated_diameter_max": 97.7293544391
        }
    },
    "is_potentially_hazardous_asteroid": false,
    "close_approach_data": [
        {
            "close_approach_date": "2017-01-25",
            "close_approach_date_full": "2017-Jan-25 19:05",
            "epoch_date_close_approach": 1485371100000,
            "relative_velocity": {
                "kilometers_per_second": "16.9388918263",
                "kilometers_per_hour": "60980.010574838",
                "miles_per_hour": "37890.6071263487"
            },
            "miss_distance": {
                "astronomical": "0.0120499897",
                "lunar": "4.6874459933",
                "kilometers": "1802652.792641939",
                "miles": "1120116.5048551982"
            },
            "orbiting_body": "Earth"
        },
        {
            "close_approach_date": "2069-07-17",
            "close_approach_date_full": "2069-Jul-17 07:05",
            "epoch_date_close_approach": 3141270300000,
            "relative_velocity": {
                "kilometers_per_second": "30.447687593",
                "kilometers_per_hour": "109611.6753348468",
                "miles_per_hour": "68108.4323768108"
            },
            "miss_distance": {
                "astronomical": "0.452079354",
                "lunar": "175.858868706",
                "kilometers": "67630108.42937598",
                "miles": "42023400.727029324"
            },
            "orbiting_body": "Earth"
        }
    ],
    "orbital_data": {
        "orbit_id": "6",
        "orbit_determination_date": "2017-04-06 08:20:41",
        "first_observation_date": "2017-01-28",
        "last_observation_date": "2017-02-04",
        "data_arc_in_days": 7,
        "observations_used": 40,
        "orbit_uncertainty": "8",
        "minimum_orbit_intersection": ".00425564",
        "jupiter_tisserand_invariant": "4.063",
        "epoch_osculation": "2457783.5",
        "eccentricity": ".5982241853338993",
        "semi_major_axis": "1.644198868979802",
        "inclination": "4.098505937246334",
        "ascending_node_longitude": "133.5292517802542",
        "orbital_period": "770.0695387361008",
        "perihelion_distance": ".6605993400574413",
        "perihelion_argument": "269.5610623834309",
        "aphelion_distance": "2.627798397902163",
        "perihelion_time": "2457731.176096004391",
        "mean_anomaly": "24.46091487962941",
        "mean_motion": ".4674902484662107",
        "equinox": "J2000",
        "orbit_class": {
            "orbit_class_type": "APO",
            "orbit_class_description": "Near-Earth asteroid orbits which cross the Earth’s orbit similar to that of 1862 Apollo",
            "orbit_class_range": "a (semi-major axis) > 1.0 AU; q (perihelion) < 1.017 AU"
        }
    },
    "is_sentry_object": false
}